*******************************************************************************
 Revised: Dec 17, 2009              Jupiter                                 599
 
 PHYSICAL DATA (updated 2009-Jan-28):
  Mass (10^24 kg)       =  1898.13+-.19   Density (g/cm^3)       =  1.326
  Equat. radius (1 bar) = 71492+-4 km     Polar radius (km)      = 66854+-10
  Volumetric mean radius= 69911+-6 km     Flattening             =  0.06487

  Rotation period       = 9h 55m 29.685s  Rot. rate(10^-4 rad/s) =  1.75865
  m = w^2a^3/GM         =  0.089195       Hydrostatic flat., fh  =  0.06509
  Inferred rot. period  =  9.894+-0.02 hr ks = 3*J2/m            =  0.494
  Mom. of inert. I/MRo^2=  0.254          I/MRo^2 (upper bound)  =  0.267 
  Rocky core mass (Mc/M)=  0.0261         Y factor (He/H ratio)  =  0.18+-0.04

  GM (km^3/s^2)         = 126,686,511     GM 1-sigma (km^3/s^2)  = +-100
  Equ. grav, ge (m/s^2) = 24.79           Pol. grav, gp (m/s^2)  = 28.34

  Geometric albedo      =  0.52           Visual magnitude V(1,0)= -9.40
  Vis. mag. (opposition)= -2.70           Obliquity to orbit     =  3.12 deg
  Sidereal orbit period = 11.862615 yr    Sidereal orbit period  = 4332.820 d
  Mean daily motion     = 0.0831294 deg/d Mean orbit velocity    = 13.0697 km/s

  Atmos. temp. (1 bar)  = 165+-5 K        Heat flow/mass (x10^7) = 15 erg/gm*s
  Planetary Solar Const =  50.5 W/m^2     Dipole tilt/offset     = 9.6deg/0.1Rp 
  Escape velocity (km/s)=  59.5           Mag.dip.mom(gauss-Rp^3)= 4.2 
  Aroche(ice)/Rp        =  2.76           Hill's sphere rad. Rp  = 740
*******************************************************************************
 
 
*******************************************************************************
Ephemeris / WWW_USER Thu May  6 09:29:03 2010  Pasadena, USA     / Horizons    
*******************************************************************************
Target body name: Jupiter (599)                   {source: JUP230}
Center body name: Solar System Barycenter (0)     {source: DE405}
Center-site name: BODY CENTER
*******************************************************************************
Start time      : A.D. 2010-May-05 00:00:00.0000 CT 
Stop  time      : A.D. 2015-May-05 00:00:00.0000 CT 
Step-size       : 1440 minutes
*******************************************************************************
Center geodetic : 0.00000000,0.00000000,0.0000000 {E-lon(deg),Lat(deg),Alt(km)}
Center cylindric: 0.00000000,0.00000000,0.0000000 {E-lon(deg),Dxy(km),Dz(km)}
Center radii    : (undefined)                                                  
Output units    : AU-D                                                         
Output format   : 02
Reference frame : ICRF/J2000.0                                                 
Output type     : GEOMETRIC cartesian states
Coordinate systm: Ecliptic and Mean Equinox of Reference Epoch                 
*******************************************************************************
JDCT 
   X     Y     Z
   VX    VY    VZ
*******************************************************************************
$$SOE
2456205.500000000 = A.D. 2012-Oct-05 00:00:00.0000 (CT)
   2.054721831141057E+00  4.595110185154547E+00 -6.514409811069191E-02
  -6.979660604128714E-03  3.441264721932538E-03  1.418995747632584E-04
2456206.500000000 = A.D. 2012-Oct-06 00:00:00.0000 (CT)
   2.047739550041860E+00  4.598546048165008E+00 -6.500212996509250E-02
  -6.984375169058637E-03  3.430229252360314E-03  1.420366829804897E-04
2456207.500000000 = A.D. 2012-Oct-07 00:00:00.0000 (CT)
   2.040753130652569E+00  4.601971683693399E+00 -6.485998506834734E-02
  -6.989281150660492E-03  3.421049779980507E-03  1.422413798154925E-04
2456208.500000000 = A.D. 2012-Oct-08 00:00:00.0000 (CT)
   2.033761021039051E+00  4.605386886235594E+00 -6.471769407976639E-02
  -6.994215222487250E-03  3.409477643158757E-03  1.423549006878356E-04
2456209.500000000 = A.D. 2012-Oct-09 00:00:00.0000 (CT)
   2.026764327903392E+00  4.608791502122917E+00 -6.457524947123527E-02
  -6.999675520205586E-03  3.399322428971328E-03  1.425115700986786E-04
2456210.500000000 = A.D. 2012-Oct-10 00:00:00.0000 (CT)
   2.019762468368604E+00  4.612184926566895E+00 -6.443268040455641E-02
  -7.003776656080827E-03  3.388129067455530E-03  1.426527488314712E-04
2456211.500000000 = A.D. 2012-Oct-11 00:00:00.0000 (CT)
   2.012755778822463E+00  4.615567858701564E+00 -6.428995551458461E-02
  -7.009550564644662E-03  3.376943092645274E-03  1.427679703776365E-04
2456212.500000000 = A.D. 2012-Oct-12 00:00:00.0000 (CT)
   2.005744662136869E+00  4.618938968946258E+00 -6.414712146868611E-02
  -7.012808763869593E-03  3.366023977667459E-03  1.429253255634843E-04
2456213.500000000 = A.D. 2012-Oct-13 00:00:00.0000 (CT)
   1.998729363996161E+00  4.622299639850075E+00 -6.400412546123013E-02
  -7.017353663957983E-03  3.354958208085493E-03  1.430605864038312E-04
2456214.500000000 = A.D. 2012-Oct-14 00:00:00.0000 (CT)
   1.991710272157994E+00  4.625649873071080E+00 -6.386095857435956E-02
  -7.021612405531725E-03  3.345733568443768E-03  1.432699860925162E-04
2456215.500000000 = A.D. 2012-Oct-15 00:00:00.0000 (CT)
   1.984685844959801E+00  4.628989892976922E+00 -6.371763535553526E-02
  -7.026506871124954E-03  3.334241891552446E-03  1.433840276610222E-04
2456216.500000000 = A.D. 2012-Oct-16 00:00:00.0000 (CT)
   1.977657128316416E+00  4.632319316802277E+00 -6.357415794886527E-02
  -7.031535866476506E-03  3.324338228793051E-03  1.435523920186529E-04
2456217.500000000 = A.D. 2012-Oct-17 00:00:00.0000 (CT)
   1.970623360806602E+00  4.635637786376846E+00 -6.343054964831932E-02
  -7.035587378188863E-03  3.313113232436409E-03  1.436892956672714E-04
2456218.500000000 = A.D. 2012-Oct-18 00:00:00.0000 (CT)
   1.963585013060316E+00  4.638945913559243E+00 -6.328677991622229E-02
  -7.041274984270135E-03  3.302373579424828E-03  1.438189038005308E-04
2456219.500000000 = A.D. 2012-Oct-19 00:00:00.0000 (CT)
   1.956542081003338E+00  4.642242360455195E+00 -6.314290129082152E-02
  -7.044529436514159E-03  3.291283648248752E-03  1.439667586810225E-04
2456220.500000000 = A.D. 2012-Oct-20 00:00:00.0000 (CT)
   1.949495064432237E+00  4.645528439988142E+00 -6.299886023771864E-02
  -7.049208452201240E-03  3.280400522072858E-03  1.441030404485946E-04
2456221.500000000 = A.D. 2012-Oct-21 00:00:00.0000 (CT)
   1.942444201123225E+00  4.648803985238970E+00 -6.285465601966522E-02
  -7.053216555057533E-03  3.271090907632606E-03  1.443100232787478E-04
2456222.500000000 = A.D. 2012-Oct-22 00:00:00.0000 (CT)
   1.935388029881366E+00  4.652069490016318E+00 -6.271029123780872E-02
  -7.058425605050326E-03  3.259645170105373E-03  1.444190075763154E-04
2456223.500000000 = A.D. 2012-Oct-23 00:00:00.0000 (CT)
   1.928327496726764E+00  4.655324216615928E+00 -6.256578219096524E-02
  -7.063294183589109E-03  3.249705678274370E-03  1.445860273555985E-04
2456224.500000000 = A.D. 2012-Oct-24 00:00:00.0000 (CT)
   1.921261809231930E+00  4.658567967085943E+00 -6.242114694088358E-02
  -7.067535170416620E-03  3.238166274881882E-03  1.447064573788636E-04
2456225.500000000 = A.D. 2012-Oct-25 00:00:00.0000 (CT)
   1.914191654246814E+00  4.661801141576058E+00 -6.227635899276104E-02
  -7.073121517376547E-03  3.227489025558359E-03  1.448383472074009E-04
2456226.500000000 = A.D. 2012-Oct-26 00:00:00.0000 (CT)
   1.907116775986288E+00  4.665022454850177E+00 -6.213147223407408E-02
  -7.076365334850788E-03  3.215870488628889E-03  1.449653764830098E-04
2456227.500000000 = A.D. 2012-Oct-27 00:00:00.0000 (CT)
   1.900038054627513E+00  4.668233101200630E+00 -6.198643260407753E-02
  -7.080925512418227E-03  3.204887109438012E-03  1.450972045643814E-04
2456228.500000000 = A.D. 2012-Oct-28 00:00:00.0000 (CT)
   1.892955664545439E+00  4.671432868258897E+00 -6.184124239553138E-02
  -7.084411408949105E-03  3.195212531541005E-03  1.452959973621110E-04
2456229.500000000 = A.D. 2012-Oct-29 00:00:00.0000 (CT)
   1.885868378721132E+00  4.674622594845904E+00 -6.169588790794804E-02
  -7.089541486970948E-03  3.183795856479113E-03  1.454049461824401E-04
2456230.500000000 = A.D. 2012-Oct-30 00:00:00.0000 (CT)
   1.878776999719979E+00  4.677801354416878E+00 -6.155039473538462E-02
  -7.093867741750009E-03  3.173815836253024E-03  1.455753208736287E-04
2456231.500000000 = A.D. 2012-Oct-31 00:00:00.0000 (CT)
   1.871680748498418E+00  4.680969253699860E+00 -6.140477043835428E-02
  -7.098007850915956E-03  3.162203815792496E-03  1.456909759578310E-04
2456232.500000000 = A.D. 2012-Nov-01 00:00:00.0000 (CT)
   1.864580406150870E+00  4.684126561463416E+00 -6.125899196507281E-02
  -7.103192969345207E-03  3.151853227534820E-03  1.458374122719463E-04
2456233.500000000 = A.D. 2012-Nov-02 00:00:00.0000 (CT)
   1.857475393035400E+00  4.687272206411957E+00 -6.111310991636579E-02
  -7.106388948290693E-03  3.140094764576251E-03  1.459565588842352E-04
2456234.500000000 = A.D. 2012-Nov-03 00:00:00.0000 (CT)
   1.850366805207379E+00  4.690407229376349E+00 -6.096707334882846E-02
  -7.110813546901933E-03  3.129400884214263E-03  1.460966667619440E-04
2456235.500000000 = A.D. 2012-Nov-04 00:00:00.0000 (CT)
   1.843254599883750E+00  4.693531412432870E+00 -6.082088826131662E-02
  -7.113998954169590E-03  3.119644020423033E-03  1.462928349231900E-04
2456236.500000000 = A.D. 2012-Nov-05 00:00:00.0000 (CT)
   1.836137720081651E+00  4.696645820691206E+00 -6.067452952495501E-02
  -7.119285883999947E-03  3.108567207502836E-03  1.464087157856372E-04
2456237.500000000 = A.D. 2012-Nov-06 00:00:00.0000 (CT)
   1.829016665715640E+00  4.699749284025819E+00 -6.052803565871084E-02
  -7.123430440272167E-03  3.098617331446048E-03  1.465795506312865E-04
2456238.500000000 = A.D. 2012-Nov-07 00:00:00.0000 (CT)
   1.821890686679548E+00  4.702842070517321E+00 -6.038140807498548E-02
  -7.127866340235675E-03  3.086986085775609E-03  1.466869614726731E-04
